[{"OBJECT_NAME":"SKYNET 5D","OBJECT_ID":"2012-075A","EPOCH":"2026-03-04T15:55:57.410688","MEAN_MOTION":1.00275508,"ECCENTRICITY":0.0003728,"INCLINATION":0.0704,"RA_OF_ASC_NODE":340.1469,"ARG_OF_PERICENTER":2.644,"MEAN_ANOMALY":111.3225,"EPHEMERIS_TYPE":0,"CLASSIFICATION_TYPE":"U","NORAD_CAT_ID":39034,"ELEMENT_SET_NO":999,"REV_AT_EPOCH":4811,"BSTAR":0,"MEAN_MOTION_DOT":8.8e-7,"MEAN_MOTION_DDOT":0},{"OBJECT_NAME":"MEXSAT 3","OBJECT_ID":"2012-075B","EPOCH":"2026-03-04T09:57:38.666304","MEAN_MOTION":1.00269821,"ECCENTRICITY":0.0001601,"INCLINATION":0.0376,"RA_OF_ASC_NODE":247.7696,"ARG_OF_PERICENTER":88.9524,"MEAN_ANOMALY":220.0204,"EPHEMERIS_TYPE":0,"CLASSIFICATION_TYPE":"U","NORAD_CAT_ID":39035,"ELEMENT_SET_NO":999,"REV_AT_EPOCH":600,"BSTAR":0,"MEAN_MOTION_DOT":-3.7e-7,"MEAN_MOTION_DDOT":0},{"OBJECT_NAME":"TDRS 11","OBJECT_ID":"2013-004A","EPOCH":"2026-03-04T14:49:38.633664","MEAN_MOTION":1.00276642,"ECCENTRICITY":0.0003958,"INCLINATION":3.3676,"RA_OF_ASC_NODE":29.356,"ARG_OF_PERICENTER":350.5766,"MEAN_ANOMALY":190.4967,"EPHEMERIS_TYPE":0,"CLASSIFICATION_TYPE":"U","NORAD_CAT_ID":39070,"ELEMENT_SET_NO":999,"REV_AT_EPOCH":4564,"BSTAR":0,"MEAN_MOTION_DOT":7.1e-7,"MEAN_MOTION_DDOT":0},{"OBJECT_NAME":"AMAZONAS 3","OBJECT_ID":"2013-006A","EPOCH":"2026-03-04T03:36:38.720160","MEAN_MOTION":1.00271397,"ECCENTRICITY":0.00025446,"INCLINATION":0.0571,"RA_OF_ASC_NODE":246.2369,"ARG_OF_PERICENTER":77.7801,"MEAN_ANOMALY":191.0012,"EPHEMERIS_TYPE":0,"CLASSIFICATION_TYPE":"U","NORAD_CAT_ID":39078,"ELEMENT_SET_NO":999,"REV_AT_EPOCH":4386,"BSTAR":0,"MEAN_MOTION_DOT":-2.95e-6,"MEAN_MOTION_DDOT":0},{"OBJECT_NAME":"AZERSPACE 1","OBJECT_ID":"2013-006B","EPOCH":"2026-03-04T07:10:38.707968","MEAN_MOTION":1.00275032,"ECCENTRICITY":9.609e-5,"INCLINATION":0.0381,"RA_OF_ASC_NODE":277.8189,"ARG_OF_PERICENTER":83.6647,"MEAN_ANOMALY":314.2023,"EPHEMERIS_TYPE":0,"CLASSIFICATION_TYPE":"U","NORAD_CAT_ID":39079,"ELEMENT_SET_NO":999,"REV_AT_EPOCH":4775,"BSTAR":0,"MEAN_MOTION_DOT":1.21e-6,"MEAN_MOTION_DDOT":0},{"OBJECT_NAME":"SBIRS GEO-2 (USA 241)","OBJECT_ID":"2013-011A","EPOCH":"2026-03-03T22:23:48.753024","MEAN_MOTION":1.00271424,"ECCENTRICITY":0.0002241,"INCLINATION":4.2604,"RA_OF_ASC_NODE":52.3811,"ARG_OF_PERICENTER":292.1591,"MEAN_ANOMALY":103.3001,"EPHEMERIS_TYPE":0,"CLASSIFICATION_TYPE":"U","NORAD_CAT_ID":39120,"ELEMENT_SET_NO":999,"REV_AT_EPOCH":4748,"BSTAR":0,"MEAN_MOTION_DOT":-2.97e-6,"MEAN_MOTION_DDOT":0},{"OBJECT_NAME":"EUTELSAT 117 WEST A","OBJECT_ID":"2013-012A","EPOCH":"2026-03-04T09:57:38.664576","MEAN_MOTION":1.00271241,"ECCENTRICITY":0.0002958,"INCLINATION":0.0538,"RA_OF_ASC_NODE":291.9758,"ARG_OF_PERICENTER":51.8659,"MEAN_ANOMALY":210.9206,"EPHEMERIS_TYPE":0,"CLASSIFICATION_TYPE":"U","NORAD_CAT_ID":39122,"ELEMENT_SET_NO":999,"REV_AT_EPOCH":4738,"BSTAR":0,"MEAN_MOTION_DOT":-2.4e-7,"MEAN_MOTION_DDOT":0},{"OBJECT_NAME":"ANIK G1","OBJECT_ID":"2013-014A","EPOCH":"2026-03-04T08:33:38.625984","MEAN_MOTION":1.00271719,"ECCENTRICITY":0.00030353,"INCLINATION":0.0553,"RA_OF_ASC_NODE":270.7587,"ARG_OF_PERICENTER":51.5919,"MEAN_ANOMALY":220.8486,"EPHEMERIS_TYPE":0,"CLASSIFICATION_TYPE":"U","NORAD_CAT_ID":39127,"ELEMENT_SET_NO":999,"REV_AT_EPOCH":4720,"BSTAR":0,"MEAN_MOTION_DOT":-8.6e-7,"MEAN_MOTION_DDOT":0},{"OBJECT_NAME":"ZHONGXING-11","OBJECT_ID":"2013-020A","EPOCH":"2026-03-04T20:00:38.649888","MEAN_MOTION":1.00272158,"ECCENTRICITY":7.05e-5,"INCLINATION":0.044,"RA_OF_ASC_NODE":306.2371,"ARG_OF_PERICENTER":36.1771,"MEAN_ANOMALY":218.2548,"EPHEMERIS_TYPE":0,"CLASSIFICATION_TYPE":"U","NORAD_CAT_ID":39157,"ELEMENT_SET_NO":999,"REV_AT_EPOCH":4685,"BSTAR":0,"MEAN_MOTION_DOT":-3.01e-6,"MEAN_MOTION_DDOT":0},{"OBJECT_NAME":"EUTELSAT 7B","OBJECT_ID":"2013-022A","EPOCH":"2026-03-04T09:02:38.798880","MEAN_MOTION":1.00272317,"ECCENTRICITY":0.00063069,"INCLINATION":0.069,"RA_OF_ASC_NODE":350.8297,"ARG_OF_PERICENTER":2.7259,"MEAN_ANOMALY":311.205,"EPHEMERIS_TYPE":0,"CLASSIFICATION_TYPE":"U","NORAD_CAT_ID":39163,"ELEMENT_SET_NO":999,"REV_AT_EPOCH":4689,"BSTAR":0,"MEAN_MOTION_DOT":3.6e-7,"MEAN_MOTION_DDOT":0},{"OBJECT_NAME":"WGS F5 (USA 243)","OBJECT_ID":"2013-024A","EPOCH":"2026-03-04T08:14:38.476896","MEAN_MOTION":1.00274869,"ECCENTRICITY":3.241e-5,"INCLINATION":0.0099,"RA_OF_ASC_NODE":133.255,"ARG_OF_PERICENTER":188.6764,"MEAN_ANOMALY":271.326,"EPHEMERIS_TYPE":0,"CLASSIFICATION_TYPE":"U","NORAD_CAT_ID":39168,"ELEMENT_SET_NO":999,"REV_AT_EPOCH":4612,"BSTAR":0,"MEAN_MOTION_DOT":-2.96e-6,"MEAN_MOTION_DDOT":0},{"OBJECT_NAME":"SES-6","OBJECT_ID":"2013-026A","EPOCH":"2026-03-04T09:34:38.603424","MEAN_MOTION":1.00272113,"ECCENTRICITY":0.00018443,"INCLINATION":0.0661,"RA_OF_ASC_NODE":288.6587,"ARG_OF_PERICENTER":60.4201,"MEAN_ANOMALY":276.2078,"EPHEMERIS_TYPE":0,"CLASSIFICATION_TYPE":"U","NORAD_CAT_ID":39172,"ELEMENT_SET_NO":999,"REV_AT_EPOCH":4667,"BSTAR":0,"MEAN_MOTION_DOT":-2.73e-6,"MEAN_MOTION_DDOT":0},{"OBJECT_NAME":"IRNSS-1A","OBJECT_ID":"2013-034A","EPOCH":"2026-03-03T14:19:51.811680","MEAN_MOTION":1.00269823,"ECCENTRICITY":0.0017825,"INCLINATION":35.4874,"RA_OF_ASC_NODE":65.3779,"ARG_OF_PERICENTER":190.7092,"MEAN_ANOMALY":175.2371,"EPHEMERIS_TYPE":0,"CLASSIFICATION_TYPE":"U","NORAD_CAT_ID":39199,"ELEMENT_SET_NO":999,"REV_AT_EPOCH":4631,"BSTAR":0,"MEAN_MOTION_DOT":8.1e-7,"MEAN_MOTION_DDOT":0},{"OBJECT_NAME":"ALPHASAT","OBJECT_ID":"2013-038A","EPOCH":"2026-03-04T20:20:39.403392","MEAN_MOTION":1.00269874,"ECCENTRICITY":0.0001918,"INCLINATION":2.9814,"RA_OF_ASC_NODE":2.1416,"ARG_OF_PERICENTER":359.4985,"MEAN_ANOMALY":130.9877,"EPHEMERIS_TYPE":0,"CLASSIFICATION_TYPE":"U","NORAD_CAT_ID":39215,"ELEMENT_SET_NO":999,"REV_AT_EPOCH":4297,"BSTAR":0,"MEAN_MOTION_DOT":1.25e-6,"MEAN_MOTION_DDOT":0},{"OBJECT_NAME":"INSAT-3D","OBJECT_ID":"2013-038B","EPOCH":"2026-03-04T20:30:35.352576","MEAN_MOTION":1.00273268,"ECCENTRICITY":0.0001748,"INCLINATION":1.6566,"RA_OF_ASC_NODE":83.9077,"ARG_OF_PERICENTER":242.999,"MEAN_ANOMALY":272.8215,"EPHEMERIS_TYPE":0,"CLASSIFICATION_TYPE":"U","NORAD_CAT_ID":39216,"ELEMENT_SET_NO":999,"REV_AT_EPOCH":4603,"BSTAR":0,"MEAN_MOTION_DOT":-3.48e-6,"MEAN_MOTION_DDOT":0},{"OBJECT_NAME":"WGS F6 (USA 244)","OBJECT_ID":"2013-041A","EPOCH":"2026-03-04T11:59:38.898528","MEAN_MOTION":1.00273061,"ECCENTRICITY":0.0001539,"INCLINATION":0.0186,"RA_OF_ASC_NODE":133.169,"ARG_OF_PERICENTER":193.1675,"MEAN_ANOMALY":240.6127,"EPHEMERIS_TYPE":0,"CLASSIFICATION_TYPE":"U","NORAD_CAT_ID":39222,"ELEMENT_SET_NO":999,"REV_AT_EPOCH":4501,"BSTAR":0,"MEAN_MOTION_DOT":7.8e-7,"MEAN_MOTION_DDOT":0},{"OBJECT_NAME":"ES'HAIL 1","OBJECT_ID":"2013-044A","EPOCH":"2026-03-04T20:20:21.833952","MEAN_MOTION":1.0027136,"ECCENTRICITY":0.0003074,"INCLINATION":0.0552,"RA_OF_ASC_NODE":351.9803,"ARG_OF_PERICENTER":355.0648,"MEAN_ANOMALY":146.1147,"EPHEMERIS_TYPE":0,"CLASSIFICATION_TYPE":"U","NORAD_CAT_ID":39233,"ELEMENT_SET_NO":999,"REV_AT_EPOCH":4558,"BSTAR":0,"MEAN_MOTION_DOT":1.33e-6,"MEAN_MOTION_DDOT":0}]
