SKYNET 5D               
1 39034U 12075A   26063.66385892  .00000088  00000+0  00000+0 0  9992
2 39034   0.0704 340.1469 0003728   2.6440 111.3225  1.00275508 48112
MEXSAT 3                
1 39035U 12075B   26063.41503086 -.00000037  00000+0  00000+0 0  9998
2 39035   0.0376 247.7696 0001601  88.9524 220.0204  1.00269821  6008
TDRS 11                 
1 39070U 13004A   26063.61780826  .00000071  00000+0  00000+0 0  9998
2 39070   3.3676  29.3560 0003958 350.5766 190.4967  1.00276642 45641
AMAZONAS 3              
1 39078U 13006A   26063.15044815 -.00000295  00000+0  00000+0 0  9997
2 39078   0.0571 246.2369 0002544  77.7801 191.0012  1.00271397 43864
AZERSPACE 1             
1 39079U 13006B   26063.29905912  .00000121  00000+0  00000+0 0  9994
2 39079   0.0381 277.8189 0000960  83.6647 314.2023  1.00275032 47751
SBIRS GEO-2 (USA 241)   
1 39120U 13011A   26062.93320316 -.00000297  00000+0  00000+0 0  9991
2 39120   4.2604  52.3811 0002241 292.1591 103.3001  1.00271424 47483
EUTELSAT 117 WEST A     
1 39122U 13012A   26063.41503084 -.00000024  00000+0  00000+0 0  9991
2 39122   0.0538 291.9758 0002958  51.8659 210.9206  1.00271241 47384
ANIK G1                 
1 39127U 13014A   26063.35669706 -.00000086  00000+0  00000+0 0  9993
2 39127   0.0553 270.7587 0003035  51.5919 220.8486  1.00271719 47205
ZHONGXING-11            
1 39157U 13020A   26063.83378067 -.00000301  00000+0  00000+0 0  9993
2 39157   0.0440 306.2371 0000705  36.1771 218.2548  1.00272158 46853
EUTELSAT 7B             
1 39163U 13022A   26063.37683795  .00000036  00000+0  00000+0 0  9992
2 39163   0.0690 350.8297 0006306   2.7259 311.2050  1.00272317 46895
WGS F5 (USA 243)        
1 39168U 13024A   26063.34350089 -.00000296  00000+0  00000+0 0  9992
2 39168   0.0099 133.2550 0000324 188.6764 271.3260  1.00274869 46126
SES-6                   
1 39172U 13026A   26063.39905791 -.00000273  00000+0  00000+0 0  9995
2 39172   0.0661 288.6587 0001844  60.4201 276.2078  1.00272113 46673
IRNSS-1A                
1 39199U 13034A   26062.59712745  .00000081  00000+0  00000+0 0  9995
2 39199  35.4874  65.3779 0017825 190.7092 175.2371  1.00269823 46313
ALPHASAT                
1 39215U 13038A   26063.84767828  .00000125  00000+0  00000+0 0  9998
2 39215   2.9814   2.1416 0001918 359.4985 130.9877  1.00269874 42976
INSAT-3D                
1 39216U 13038B   26063.85457584 -.00000348  00000+0  00000+0 0  9993
2 39216   1.6566  83.9077 0001748 242.9990 272.8215  1.00273268 46035
WGS F6 (USA 244)        
1 39222U 13041A   26063.49975577  .00000078  00000+0  00000+0 0  9990
2 39222   0.0186 133.1690 0001539 193.1675 240.6127  1.00273061 45010
ES'HAIL 1               
1 39233U 13044A   26063.84747493  .00000133  00000+0  00000+0 0  9990
2 39233   0.0552 351.9803 0003074 355.0648 146.1147  1.00271360 45584
